STARLINK-31721          
1 59536U 24074C   25064.91403130 -.00002081  00000+0 -42589-4 0  9997
2 59536  43.0009 267.1476 0000909 333.0671  27.0138 15.40682615 50778
STARLINK-31737          
1 59537U 24074D   25064.90021063  .00001792  00000+0  50157-4 0  9994
2 59537  43.0046 267.0411 0002744 270.4386  89.6156 15.40705705 50774
STARLINK-31725          
1 59538U 24074E   25064.92505286  .00001179  00000+0  35483-4 0  9995
2 59538  43.0039 256.5665 0002317 270.7398  89.3193 15.40710982 50897
STARLINK-31539          
1 59539U 24074F   25064.89349335  .00000373  00000+0  16206-4 0  9990
2 59539  43.0040 266.9875 0001415 278.7967  81.2729 15.40699383 50679
STARLINK-31397          
1 59540U 24074G   25065.25003472 -.01110226  00000+0 -32681-1 0  9996
2 59540  43.0007 264.7182 0001660 263.6542   5.4064 15.37110718 50839
STARLINK-31481          
1 59541U 24074H   25064.92297391  .00007093  00000+0  17710-3 0  9997
2 59541  43.0058 267.2151 0001903 269.0257  91.0381 15.40667893 50774
STARLINK-31540          
1 59542U 24074J   25064.84245534  .00002291  00000+0  62104-4 0  9994
2 59542  43.0056 267.4690 0002455 270.4428  89.6148 15.40694275 50769
STARLINK-31574          
1 59543U 24074K   25065.53730812 -.00001280  00000+0 -23377-4 0  9998
2 59543  43.0015 263.2180 0001458 258.5697 101.4995 15.40692607 50872
STARLINK-31556          
1 59544U 24074L   25065.52889341 -.00060040  00000+0 -14654-2 0  9995
2 59544  43.0031 263.1573 0004435 269.0088  91.0260 15.40189777 50873
STARLINK-31582          
1 59545U 24074M   25065.25003472 -.01109294  00000+0 -36011-1 0  9995
2 59545  43.0006 264.7162 0001676 267.5428   1.7116 15.34079849 50837
STARLINK-31519          
1 59546U 24074N   25064.91849760 -.00000528  00000+0 -53634-5 0  9999
2 59546  43.0057 267.1788 0001762 292.7206  67.3464 15.40692526 50772
STARLINK-31736          
1 59547U 24074P   25064.92696471 -.00000456  00000+0 -36661-5 0  9991
2 59547  43.0020 266.3713 0001360 280.2499  79.8204 15.40692253 50689
STARLINK-31675          
1 59548U 24074Q   25064.83986607  .00000014  00000+0  76235-5 0  9994
2 59548  43.0058 267.4479 0002488 268.9958  91.0614 15.40697394 50768
STARLINK-31722          
1 59549U 24074R   25064.92074998 -.00002231  00000+0 -46177-4 0  9992
2 59549  43.0034 267.1958 0001515 290.1414  69.9280 15.40681450 50721
STARLINK-31741          
1 59550U 24074S   25064.85141922 -.00002013  00000+0 -40883-4 0  9994
2 59550  43.0055 267.5320 0002215 262.5237  97.5367 15.40719606 49598
STARLINK-31699          
1 59551U 24074T   25064.25416953  .00001246  00000+0  37089-4 0  9997
2 59551  43.0025 270.7918 0001190 278.2060  81.8661 15.40700387 49504
STARLINK-31750          
1 59552U 24074U   25063.98813211  .00003067  00000+0  80685-4 0  9998
2 59552  43.0000 272.2317 0002224 267.4132  92.6470 15.40692661 49465
STARLINK-31723          
1 59553U 24074V   25064.89797137  .00000866  00000+0  28000-4 0  9995
2 59553  43.0032 267.0212 0001666 267.4875  92.5791 15.40702782 50777
STARLINK-31724          
1 59554U 24074W   25065.49602551  .00001655  00000+0  13888-4 0  9993
2 59554  43.0004 235.5712 0002491 292.4903  67.5702 15.75034653 51081
STARLINK-31730          
1 59555U 24074X   25065.25003472 -.01110864  00000+0 -35638-1 0  9995
2 59555  43.0006 264.7356 0001675 267.9854 352.6366 15.34452991 50837
STARLINK-31718          
1 59556U 24074Y   25064.94346168 -.00098194  00000+0 -24399-2 0  9996
2 59556  43.0031 266.4988 0001287 300.6106  59.4623 15.39871518 50787
STARLINK-31747          
1 59564U 24076A   25064.67195111 -.00001783  00000+0 -35394-4 0  9994
2 59564  43.0046 295.8418 0002419 271.8278  88.2301 15.40712605 50026
STARLINK-31388          
1 59565U 24076B   25064.93301412  .00002131  00000+0  58287-4 0  9999
2 59565  43.0064 293.5105 0003295 293.1981  66.8529 15.40704156 50088
STARLINK-31332          
1 59566U 24076C   25064.95093670  .00000075  00000+0  90725-5 0  9995
2 59566  43.0045 293.6212 0001581 272.9921  87.0754 15.40696063 50085
STARLINK-31689          
1 59567U 24076D   25064.65626176  .00000972  00000+0  30549-4 0  9999
2 59567  43.0066 295.7193 0002501 266.9996  93.0575 15.40697874 50032
STARLINK-31471          
1 59568U 24076E   25064.35627954  .00000378  00000+0  16303-4 0  9994
2 59568  43.0017 296.9007 0001479 281.6138  78.4552 15.40698451 49909
STARLINK-31470          
1 59569U 24076F   25064.98937960 -.00000902  00000+0 -14323-4 0  9990
2 59569  43.0057 293.9202 0002165 271.5177  88.5432 15.40689321 49918
STARLINK-31587          
1 59570U 24076G   25064.93524183  .00000399  00000+0  16838-4 0  9997
2 59570  43.0083 293.5061 0003340 263.2389  96.8088 15.40697567 50076
STARLINK-31606          
1 59571U 24076H   25065.25003472 -.00002672  00000+0 -56691-4 0  9996
2 59571  43.0020 292.1779 0001850 269.4268 197.6197 15.40707573 49941
STARLINK-31666          
1 59572U 24076J   25064.67117819  .00002948  00000+0  77829-4 0  9993
2 59572  43.0073 293.2085 0001932 268.5565  91.5070 15.40693463 50062
STARLINK-31683          
1 59573U 24076K   25064.94645257  .00000631  00000+0  22362-4 0  9995
2 59573  42.9999 293.5903 0001682 260.4590  99.6077 15.40696040 50083
STARLINK-31751          
1 59574U 24076L   25064.66250160 -.00004729  00000+0 -10596-3 0  9999
2 59574  43.0098 294.9035 0002997 269.3890  90.6623 15.40701679 50047
STARLINK-31510          
1 59575U 24076M   25064.98489019 -.00004781  00000+0 -10715-3 0  9993
2 59575  43.0048 293.8916 0002611 272.3574  87.6984 15.40723831 50089
STARLINK-31663          
1 59576U 24076N   25063.69678968  .00000126  00000+0  10292-4 0  9992
2 59576  43.0042 300.5493 0001525 284.2404  75.8283 15.40698395 49891
STARLINK-31692          
1 59577U 24076P   25063.99180650  .00000640  00000+0  22577-4 0  9992
2 59577  43.0033 298.4438 0001248 268.2140  91.8574 15.40701713 49943
STARLINK-31685          
1 59578U 24076Q   25065.25003472 -.00004245  00000+0 -87994-4 0  9991
2 59578  43.0001 291.3860 0001840 282.8870 149.1191 15.42746386 50132
STARLINK-31686          
1 59579U 24076R   25063.98334084 -.00000692  00000+0 -92939-5 0  9994
2 59579  43.0050 299.2582 0001972 256.8876 103.1761 15.40698986 49937
STARLINK-31668          
1 59580U 24076S   25064.32988815  .00003287  00000+0  85927-4 0  9991
2 59580  43.0039 297.5642 0001517 291.5007  68.5688 15.40694863 49988
STARLINK-31690          
1 59581U 24076T   25064.94869642 -.00000184  00000+0  28712-5 0  9990
2 59581  43.0061 293.6078 0002720 281.8181  78.2370 15.40708597 50085
STARLINK-31701          
1 59582U 24076U   25064.94202872  .00048404  00000+0  11551-2 0  9993
2 59582  43.0031 293.5526 0002505 290.1188  69.9399 15.40791508 49913
STARLINK-31697          
1 59583U 24076V   25064.68490111  .00000756  00000+0  25360-4 0  9993
2 59583  43.0031 295.0659 0001962 284.0547  76.0091 15.40697457 49955
STARLINK-31662          
1 59584U 24076W   25064.93749193 -.00000220  00000+0  20255-5 0  9995
2 59584  43.0050 293.5140 0002547 258.7991 101.2580 15.40692094 50077
STARLINK-31702          
1 59585U 24076X   25064.36963276  .00007846  00000+0  19442-3 0  9997
2 59585  43.0033 296.9996 0001713 286.6634  73.4035 15.40775354 49998
STARLINK-31704          
1 59586U 24076Y   25065.52228028  .00038287  00000+0  91987-3 0  9993
2 59586  43.0003 245.6322 0001432 268.3618  91.7074 15.40678424 50636
STARLINK-31770          
1 59601U 24080A   25064.42225941  .00001534  00000+0  43977-4 0  9997
2 59601  43.0008 330.6380 0001110 278.1562  81.9169 15.40695808 49187
STARLINK-31778          
1 59602U 24080B   25064.44014609  .00001323  00000+0  38895-4 0  9996
2 59602  43.0019 330.7740 0002288 277.4979  82.5617 15.40746503 47971
STARLINK-31776          
1 59603U 24080C   25065.11970955 -.00004872  00000+0 -10949-3 0  9990
2 59603  43.0061 326.4039 0002061 247.5187 112.5451 15.40681024 49259
STARLINK-31765          
1 59604U 24080D   25065.09742645 -.00026064  00000+0 -61939-3 0  9993
2 59604  43.0002 327.1127 0002016 272.0647  87.9978 15.40669985 49290
STARLINK-31767          
1 59605U 24080E   25065.14658961 -.00001812  00000+0 -36151-4 0  9990
2 59605  43.0053 326.6135 0001730 280.6933  79.3729 15.40680359 49304
STARLINK-31782          
1 59606U 24080F   25064.14054159 -.00000618  00000+0 -75317-5 0  9990
2 59606  43.0035 331.9549 0001424 282.9224  77.1474 15.40704894 49158
STARLINK-31755          
1 59607U 24080G   25064.46243136 -.00003009  00000+0 -64735-4 0  9999
2 59607  43.0010 330.0716 0002450 253.4997 106.5591 15.40721109 49209
STARLINK-31585          
1 59608U 24080H   25065.13985397  .00000109  00000+0  98780-5 0  9991
2 59608  43.0039 326.5601 0001704 263.8806  96.1856 15.40695144 49307
STARLINK-31667          
1 59609U 24080J   25064.73519882  .00000538  00000+0  20158-4 0  9998
2 59609  43.0010 328.6818 0001807 279.2307  80.8345 15.40696886 48026
STARLINK-31729          
1 59610U 24080K   25064.44465375  .00000109  00000+0  99009-5 0  9991
2 59610  43.0074 330.8035 0002772 258.9924 101.0621 15.40701024 49198
STARLINK-31448          
1 59611U 24080L   25064.97227357 -.00001591  00000+0 -30892-4 0  9998
2 59611  43.0030 327.8898 0001422 287.6924  72.3777 15.40651746 49270
STARLINK-31748          
1 59612U 24080M   25065.09070998 -.00000309  00000+0 -11179-6 0  9995
2 59612  43.0016 327.0567 0002313 271.7356  88.3235 15.40690344 49243
STARLINK-31746          
1 59613U 24080N   25065.07264972 -.00001674  00000+0 -32822-4 0  9993
2 59613  43.0026 326.0199 0001785 295.0555  65.0116 15.40686813 49300
STARLINK-31762          
1 59614U 24080P   25065.14882494 -.00000672  00000+0 -88246-5 0  9996
2 59614  43.0027 326.6317 0002019 260.6681  99.3947 15.40689145 49302
STARLINK-31761          
1 59615U 24080Q   25065.05829194 -.00009356  00000+0 -21669-3 0  9997
2 59615  43.0016 322.4269 0002206 269.3806  90.6798 15.40736235 49293
